{
  "type": "FeatureCollection",
  "features": [
    {
      "type": "Feature",
      "properties": {
        "norad_id": 43823,
        "name": "GEO-KOMPSAT-2A",
        "group": "weather",
        "lat": -0.011398947391878344,
        "lon": 64.21023016099305,
        "alt_km": 35788.84097248625,
        "timestamp": "2025-12-05T14:45:14.957754+00:00",
        "meta_object_name": "GEO-KOMPSAT-2A",
        "meta_object_id": "2018-100A",
        "meta_epoch": "2025-12-04T12:37:25.948128",
        "meta_mean_motion": 1.00269299,
        "meta_eccentricity": 5.06e-05,
        "meta_inclination": 0.0604,
        "meta_ra_of_asc_node": 120.8379,
        "meta_arg_of_pericenter": 95.9371,
        "meta_mean_anomaly": 174.4371,
        "meta_ephemeris_type": 0,
        "meta_classification_type": "U",
        "meta_norad_cat_id": 43823,
        "meta_element_set_no": 999,
        "meta_rev_at_epoch": 2567,
        "meta_bstar": 0,
        "meta_mean_motion_dot": -3.29e-06,
        "meta_mean_motion_ddot": 0,
        "tle_line1": "1 43823U 18100A   25338.52599477 -.00000329  00000+0  00000+0 0  9992",
        "tle_line2": "2 43823   0.0604 120.8379 0000506  95.9371 174.4371  1.00269299 25672"
      },
      "geometry": {
        "type": "Point",
        "coordinates": [
          64.21023016099305,
          -0.011398947391878344
        ]
      }
    },
    {
      "type": "Feature",
      "properties": {
        "norad_id": 44387,
        "name": "METEOR-M2 2",
        "group": "weather",
        "lat": -42.086845450190445,
        "lon": 131.12414033942187,
        "alt_km": 817.1170819620193,
        "timestamp": "2025-12-05T14:45:14.957767+00:00",
        "meta_object_name": "METEOR-M2 2",
        "meta_object_id": "2019-038A",
        "meta_epoch": "2025-12-04T19:09:57.932352",
        "meta_mean_motion": 14.24286352,
        "meta_eccentricity": 9.5e-05,
        "meta_inclination": 98.8964,
        "meta_ra_of_asc_node": 318.4306,
        "meta_arg_of_pericenter": 163.8996,
        "meta_mean_anomaly": 196.2212,
        "meta_ephemeris_type": 0,
        "meta_classification_type": "U",
        "meta_norad_cat_id": 44387,
        "meta_element_set_no": 999,
        "meta_rev_at_epoch": 33362,
        "meta_bstar": 0.00016344,
        "meta_mean_motion_dot": 3.32e-06,
        "meta_mean_motion_ddot": 0,
        "tle_line1": "1 44387U 19038A   25338.79858718  .00000332  00000+0  16344-3 0  9999",
        "tle_line2": "2 44387  98.8964 318.4306 0000950 163.8996 196.2212 14.24286352333620"
      },
      "geometry": {
        "type": "Point",
        "coordinates": [
          131.12414033942187,
          -42.086845450190445
        ]
      }
    },
    {
      "type": "Feature",
      "properties": {
        "norad_id": 47719,
        "name": "ARKTIKA-M 1",
        "group": "weather",
        "lat": 21.2946037690456,
        "lon": 96.3524493820052,
        "alt_km": 12044.44465631328,
        "timestamp": "2025-12-05T14:45:14.957781+00:00",
        "meta_object_name": "ARKTIKA-M 1",
        "meta_object_id": "2021-016A",
        "meta_epoch": "2025-12-01T02:41:41.634816",
        "meta_mean_motion": 2.00613156,
        "meta_eccentricity": 0.71974708,
        "meta_inclination": 63.1756,
        "meta_ra_of_asc_node": 85.6045,
        "meta_arg_of_pericenter": 269.084,
        "meta_mean_anomaly": 15.7076,
        "meta_ephemeris_type": 0,
        "meta_classification_type": "U",
        "meta_norad_cat_id": 47719,
        "meta_element_set_no": 999,
        "meta_rev_at_epoch": 3481,
        "meta_bstar": 0,
        "meta_mean_motion_dot": -1.2e-07,
        "meta_mean_motion_ddot": 0,
        "tle_line1": "1 47719U 21016A   25335.11228744 -.00000012  00000+0  00000+0 0  9997",
        "tle_line2": "2 47719  63.1756  85.6045 7197470 269.0840  15.7076  2.00613156 34816"
      },
      "geometry": {
        "type": "Point",
        "coordinates": [
          96.3524493820052,
          21.2946037690456
        ]
      }
    },
    {
      "type": "Feature",
      "properties": {
        "norad_id": 49008,
        "name": "FENGYUN 3E",
        "group": "weather",
        "lat": -63.691389490188556,
        "lon": -1.6349415483429344,
        "alt_km": 832.4595962541198,
        "timestamp": "2025-12-05T14:45:14.957794+00:00",
        "meta_object_name": "FENGYUN 3E",
        "meta_object_id": "2021-062A",
        "meta_epoch": "2025-12-04T18:45:55.300320",
        "meta_mean_motion": 14.19878421,
        "meta_eccentricity": 7e-05,
        "meta_inclination": 98.7476,
        "meta_ra_of_asc_node": 339.3975,
        "meta_arg_of_pericenter": 317.4736,
        "meta_mean_anomaly": 42.6386,
        "meta_ephemeris_type": 0,
        "meta_classification_type": "U",
        "meta_norad_cat_id": 49008,
        "meta_element_set_no": 999,
        "meta_rev_at_epoch": 22899,
        "meta_bstar": 5.5305e-05,
        "meta_mean_motion_dot": 7.3e-07,
        "meta_mean_motion_ddot": 0,
        "tle_line1": "1 49008U 21062A   25338.78189005  .00000073  00000+0  55305-4 0  9992",
        "tle_line2": "2 49008  98.7476 339.3975 0000700 317.4736  42.6386 14.19878421228995"
      },
      "geometry": {
        "type": "Point",
        "coordinates": [
          -1.6349415483429344,
          -63.691389490188556
        ]
      }
    },
    {
      "type": "Feature",
      "properties": {
        "norad_id": 51850,
        "name": "GOES 18",
        "group": "weather",
        "lat": 0.006707888234332648,
        "lon": 158.9536577531339,
        "alt_km": 35788.50883866619,
        "timestamp": "2025-12-05T14:45:14.957807+00:00",
        "meta_object_name": "GOES 18",
        "meta_object_id": "2022-021A",
        "meta_epoch": "2025-12-04T13:54:38.819808",
        "meta_mean_motion": 1.00270877,
        "meta_eccentricity": 8.07e-05,
        "meta_inclination": 0.0021,
        "meta_ra_of_asc_node": 110.208,
        "meta_arg_of_pericenter": 180.9876,
        "meta_mean_anomaly": 214.1126,
        "meta_ephemeris_type": 0,
        "meta_classification_type": "U",
        "meta_norad_cat_id": 51850,
        "meta_element_set_no": 999,
        "meta_rev_at_epoch": 464,
        "meta_bstar": 0,
        "meta_mean_motion_dot": 1.11e-06,
        "meta_mean_motion_ddot": 0,
        "tle_line1": "1 51850U 22021A   25338.57961597  .00000111  00000+0  00000+0 0  9997",
        "tle_line2": "2 51850   0.0021 110.2080 0000807 180.9876 214.1126  1.00270877  4643"
      },
      "geometry": {
        "type": "Point",
        "coordinates": [
          158.9536577531339,
          0.006707888234332648
        ]
      }
    },
    {
      "type": "Feature",
      "properties": {
        "norad_id": 54234,
        "name": "NOAA 21 (JPSS-2)",
        "group": "weather",
        "lat": -48.82778542132831,
        "lon": -73.85119023846642,
        "alt_km": 834.1019396169604,
        "timestamp": "2025-12-05T14:45:14.957819+00:00",
        "meta_object_name": "NOAA 21 (JPSS-2)",
        "meta_object_id": "2022-150A",
        "meta_epoch": "2025-12-04T16:59:44.796768",
        "meta_mean_motion": 14.19520742,
        "meta_eccentricity": 0.0002498,
        "meta_inclination": 98.745,
        "meta_ra_of_asc_node": 275.1171,
        "meta_arg_of_pericenter": 53.083,
        "meta_mean_anomaly": 307.0575,
        "meta_ephemeris_type": 0,
        "meta_classification_type": "U",
        "meta_norad_cat_id": 54234,
        "meta_element_set_no": 999,
        "meta_rev_at_epoch": 15895,
        "meta_bstar": 0.00011877,
        "meta_mean_motion_dot": 2.06e-06,
        "meta_mean_motion_ddot": 0,
        "tle_line1": "1 54234U 22150A   25338.70815737  .00000206  00000+0  11877-3 0  9991",
        "tle_line2": "2 54234  98.7450 275.1171 0002498  53.0830 307.0575 14.19520742158959"
      },
      "geometry": {
        "type": "Point",
        "coordinates": [
          -73.85119023846642,
          -48.82778542132831
        ]
      }
    },
    {
      "type": "Feature",
      "properties": {
        "norad_id": 54743,
        "name": "METEOSAT-12 (MTG-I1)",
        "group": "weather",
        "lat": -0.7329004484164121,
        "lon": -64.28923416648732,
        "alt_km": 35781.23950796183,
        "timestamp": "2025-12-05T14:45:14.957831+00:00",
        "meta_object_name": "METEOSAT-12 (MTG-I1)",
        "meta_object_id": "2022-170C",
        "meta_epoch": "2025-12-04T05:09:49.421376",
        "meta_mean_motion": 1.00273795,
        "meta_eccentricity": 0.000153,
        "meta_inclination": 0.7187,
        "meta_ra_of_asc_node": 30.1576,
        "meta_arg_of_pericenter": 217.1226,
        "meta_mean_anomaly": 263.1859,
        "meta_ephemeris_type": 0,
        "meta_classification_type": "U",
        "meta_norad_cat_id": 54743,
        "meta_element_set_no": 999,
        "meta_rev_at_epoch": 1102,
        "meta_bstar": 0,
        "meta_mean_motion_dot": 9e-08,
        "meta_mean_motion_ddot": 0,
        "tle_line1": "1 54743U 22170C   25338.21515534  .00000009  00000+0  00000+0 0  9999",
        "tle_line2": "2 54743   0.7187  30.1576 0001530 217.1226 263.1859  1.00273795 11022"
      },
      "geometry": {
        "type": "Point",
        "coordinates": [
          -64.28923416648732,
          -0.7329004484164121
        ]
      }
    }
  ]
}